[{"OBJECT_NAME":"PCSAT (NO-44)","OBJECT_ID":"2001-043C","EPOCH":"2026-04-05T05:45:34.924320","MEAN_MOTION":14.31926836,"ECCENTRICITY":0.00068177,"INCLINATION":67.0498,"RA_OF_ASC_NODE":72.9417,"ARG_OF_PERICENTER":264.5411,"MEAN_ANOMALY":95.4914,"EPHEMERIS_TYPE":0,"CLASSIFICATION_TYPE":"U","NORAD_CAT_ID":26931,"ELEMENT_SET_NO":999,"REV_AT_EPOCH":28000,"BSTAR":0.00012926867,"MEAN_MOTION_DOT":2.64e-6,"MEAN_MOTION_DDOT":0},{"OBJECT_NAME":"PROBA-1","OBJECT_ID":"2001-049B","EPOCH":"2026-04-05T05:57:28.319616","MEAN_MOTION":15.07205366,"ECCENTRICITY":0.0055619,"INCLINATION":97.9625,"RA_OF_ASC_NODE":101.2418,"ARG_OF_PERICENTER":11.2047,"MEAN_ANOMALY":349.0403,"EPHEMERIS_TYPE":0,"CLASSIFICATION_TYPE":"U","NORAD_CAT_ID":26958,"ELEMENT_SET_NO":999,"REV_AT_EPOCH":33263,"BSTAR":0.00016297765,"MEAN_MOTION_DOT":2.469e-5,"MEAN_MOTION_DDOT":0},{"OBJECT_NAME":"SPOT 5","OBJECT_ID":"2002-021A","EPOCH":"2026-04-05T02:59:31.471584","MEAN_MOTION":14.54689422,"ECCENTRICITY":0.013058,"INCLINATION":97.9933,"RA_OF_ASC_NODE":137.2012,"ARG_OF_PERICENTER":143.2822,"MEAN_ANOMALY":217.741,"EPHEMERIS_TYPE":0,"CLASSIFICATION_TYPE":"U","NORAD_CAT_ID":27421,"ELEMENT_SET_NO":999,"REV_AT_EPOCH":25222,"BSTAR":0.00013985157,"MEAN_MOTION_DOT":6.22e-6,"MEAN_MOTION_DDOT":0},{"OBJECT_NAME":"FENGYUN 1D","OBJECT_ID":"2002-024B","EPOCH":"2026-04-05T03:22:16.539744","MEAN_MOTION":14.10214622,"ECCENTRICITY":0.00164677,"INCLINATION":98.9602,"RA_OF_ASC_NODE":145.7776,"ARG_OF_PERICENTER":89.0113,"MEAN_ANOMALY":271.2944,"EPHEMERIS_TYPE":0,"CLASSIFICATION_TYPE":"U","NORAD_CAT_ID":27431,"ELEMENT_SET_NO":999,"REV_AT_EPOCH":22918,"BSTAR":9.2529529e-5,"MEAN_MOTION_DOT":1.2e-6,"MEAN_MOTION_DDOT":0},{"OBJECT_NAME":"SAUDISAT 1C (SO-50)","OBJECT_ID":"2002-058C","EPOCH":"2026-04-05T02:55:49.440864","MEAN_MOTION":14.82889051,"ECCENTRICITY":0.0075478,"INCLINATION":64.5552,"RA_OF_ASC_NODE":355.0194,"ARG_OF_PERICENTER":275.8009,"MEAN_ANOMALY":83.4496,"EPHEMERIS_TYPE":0,"CLASSIFICATION_TYPE":"U","NORAD_CAT_ID":27607,"ELEMENT_SET_NO":999,"REV_AT_EPOCH":25362,"BSTAR":0.0002405924,"MEAN_MOTION_DOT":1.899e-5,"MEAN_MOTION_DDOT":0},{"OBJECT_NAME":"CORIOLIS","OBJECT_ID":"2003-001A","EPOCH":"2026-04-05T06:22:14.727936","MEAN_MOTION":14.19923741,"ECCENTRICITY":0.00150599,"INCLINATION":98.7157,"RA_OF_ASC_NODE":103.2574,"ARG_OF_PERICENTER":65.2085,"MEAN_ANOMALY":295.0656,"EPHEMERIS_TYPE":0,"CLASSIFICATION_TYPE":"U","NORAD_CAT_ID":27640,"ELEMENT_SET_NO":999,"REV_AT_EPOCH":20387,"BSTAR":0.00010753524,"MEAN_MOTION_DOT":1.85e-6,"MEAN_MOTION_DDOT":0},{"OBJECT_NAME":"CUTE-1 (CO-55)","OBJECT_ID":"2003-031E","EPOCH":"2026-04-04T23:28:29.707104","MEAN_MOTION":14.2428935,"ECCENTRICITY":0.00103254,"INCLINATION":98.6769,"RA_OF_ASC_NODE":104.4513,"ARG_OF_PERICENTER":43.9369,"MEAN_ANOMALY":316.263,"EPHEMERIS_TYPE":0,"CLASSIFICATION_TYPE":"U","NORAD_CAT_ID":27844,"ELEMENT_SET_NO":999,"REV_AT_EPOCH":18125,"BSTAR":0.00021712788,"MEAN_MOTION_DOT":4.58e-6,"MEAN_MOTION_DDOT":0},{"OBJECT_NAME":"CUBESAT XI-IV (CO-57)","OBJECT_ID":"2003-031J","EPOCH":"2026-04-05T00:00:26.441856","MEAN_MOTION":14.23580899,"ECCENTRICITY":0.00104798,"INCLINATION":98.6802,"RA_OF_ASC_NODE":104.2449,"ARG_OF_PERICENTER":60.3929,"MEAN_ANOMALY":299.8292,"EPHEMERIS_TYPE":0,"CLASSIFICATION_TYPE":"U","NORAD_CAT_ID":27848,"ELEMENT_SET_NO":999,"REV_AT_EPOCH":18096,"BSTAR":0.00018383126,"MEAN_MOTION_DOT":3.75e-6,"MEAN_MOTION_DDOT":0},{"OBJECT_NAME":"MOZHAETS 4 (RS22)","OBJECT_ID":"2003-042A","EPOCH":"2026-04-05T07:07:26.601024","MEAN_MOTION":14.73335037,"ECCENTRICITY":0.00121222,"INCLINATION":98.3454,"RA_OF_ASC_NODE":277.6023,"ARG_OF_PERICENTER":135.5495,"MEAN_ANOMALY":36.6553,"EPHEMERIS_TYPE":0,"CLASSIFICATION_TYPE":"U","NORAD_CAT_ID":27939,"ELEMENT_SET_NO":999,"REV_AT_EPOCH":20481,"BSTAR":0.00033479448,"MEAN_MOTION_DOT":2.116e-5,"MEAN_MOTION_DDOT":0},{"OBJECT_NAME":"IRS-P6 (RESOURCESAT-1)","OBJECT_ID":"2003-046A","EPOCH":"2026-04-05T07:06:33.746688","MEAN_MOTION":14.36134638,"ECCENTRICITY":0.00636746,"INCLINATION":98.1989,"RA_OF_ASC_NODE":135.3534,"ARG_OF_PERICENTER":199.9203,"MEAN_ANOMALY":292.2665,"EPHEMERIS_TYPE":0,"CLASSIFICATION_TYPE":"U","NORAD_CAT_ID":28051,"ELEMENT_SET_NO":999,"REV_AT_EPOCH":17006,"BSTAR":0.00017014539,"MEAN_MOTION_DOT":4.66e-6,"MEAN_MOTION_DDOT":0},{"OBJECT_NAME":"SAUDISAT 2","OBJECT_ID":"2004-025F","EPOCH":"2026-04-04T22:37:07.359456","MEAN_MOTION":14.56638634,"ECCENTRICITY":0.00251236,"INCLINATION":98.5511,"RA_OF_ASC_NODE":93.0364,"ARG_OF_PERICENTER":159.1598,"MEAN_ANOMALY":201.0629,"EPHEMERIS_TYPE":0,"CLASSIFICATION_TYPE":"U","NORAD_CAT_ID":28371,"ELEMENT_SET_NO":999,"REV_AT_EPOCH":15508,"BSTAR":0.00010748334,"MEAN_MOTION_DOT":4.32e-6,"MEAN_MOTION_DDOT":0},{"OBJECT_NAME":"COSMOS 2407","OBJECT_ID":"2004-028A","EPOCH":"2026-04-05T05:23:28.966848","MEAN_MOTION":13.76328312,"ECCENTRICITY":0.00407001,"INCLINATION":82.9583,"RA_OF_ASC_NODE":128.8784,"ARG_OF_PERICENTER":96.349,"MEAN_ANOMALY":334.7253,"EPHEMERIS_TYPE":0,"CLASSIFICATION_TYPE":"U","NORAD_CAT_ID":28380,"ELEMENT_SET_NO":999,"REV_AT_EPOCH":8984,"BSTAR":6.2388607e-5,"MEAN_MOTION_DOT":7.7e-7,"MEAN_MOTION_DDOT":0},{"OBJECT_NAME":"COSMOS 2414","OBJECT_ID":"2005-002A","EPOCH":"2026-04-05T01:49:10.282944","MEAN_MOTION":13.87918598,"ECCENTRICITY":0.00401772,"INCLINATION":82.9452,"RA_OF_ASC_NODE":98.9519,"ARG_OF_PERICENTER":175.7911,"MEAN_ANOMALY":184.3598,"EPHEMERIS_TYPE":0,"CLASSIFICATION_TYPE":"U","NORAD_CAT_ID":28521,"ELEMENT_SET_NO":999,"REV_AT_EPOCH":7367,"BSTAR":2.6874155e-5,"MEAN_MOTION_DOT":4.8e-7,"MEAN_MOTION_DDOT":0},{"OBJECT_NAME":"INMARSAT 4-F1","OBJECT_ID":"2005-009A","EPOCH":"2026-04-05T03:19:25.168800","MEAN_MOTION":1.00272937,"ECCENTRICITY":0.00037,"INCLINATION":5.0709,"RA_OF_ASC_NODE":42.7091,"ARG_OF_PERICENTER":354.6333,"MEAN_ANOMALY":24.0617,"EPHEMERIS_TYPE":0,"CLASSIFICATION_TYPE":"U","NORAD_CAT_ID":28628,"ELEMENT_SET_NO":999,"REV_AT_EPOCH":7694,"BSTAR":0,"MEAN_MOTION_DOT":3.5e-7,"MEAN_MOTION_DDOT":0},{"OBJECT_NAME":"HAMSAT (VO-52)","OBJECT_ID":"2005-017B","EPOCH":"2026-04-05T00:02:13.306560","MEAN_MOTION":15.09100112,"ECCENTRICITY":0.00180486,"INCLINATION":97.9963,"RA_OF_ASC_NODE":114.9848,"ARG_OF_PERICENTER":285.6117,"MEAN_ANOMALY":74.3119,"EPHEMERIS_TYPE":0,"CLASSIFICATION_TYPE":"U","NORAD_CAT_ID":28650,"ELEMENT_SET_NO":999,"REV_AT_EPOCH":13572,"BSTAR":0.00047781035,"MEAN_MOTION_DOT":7.535e-5,"MEAN_MOTION_DDOT":0},{"OBJECT_NAME":"NOAA 18","OBJECT_ID":"2005-018A","EPOCH":"2026-04-05T05:22:36.233472","MEAN_MOTION":14.13716639,"ECCENTRICITY":0.00141744,"INCLINATION":98.8123,"RA_OF_ASC_NODE":175.9552,"ARG_OF_PERICENTER":2.9936,"MEAN_ANOMALY":357.1319,"EPHEMERIS_TYPE":0,"CLASSIFICATION_TYPE":"U","NORAD_CAT_ID":28654,"ELEMENT_SET_NO":999,"REV_AT_EPOCH":7600,"BSTAR":7.7765702e-5,"MEAN_MOTION_DOT":1.03e-6,"MEAN_MOTION_DDOT":0}]
